[{"OBJECT_NAME":"STARLINK-33867","OBJECT_ID":"2025-091W","EPOCH":"2026-03-09T23:21:58.815360","MEAN_MOTION":15.27592665,"ECCENTRICITY":5.56e-5,"INCLINATION":42.9938,"RA_OF_ASC_NODE":51.0879,"ARG_OF_PERICENTER":156.6481,"MEAN_ANOMALY":203.4396,"EPHEMERIS_TYPE":0,"CLASSIFICATION_TYPE":"U","NORAD_CAT_ID":63795,"ELEMENT_SET_NO":999,"REV_AT_EPOCH":4894,"BSTAR":0.001034591,"MEAN_MOTION_DOT":0.00028328,"MEAN_MOTION_DDOT":0},{"OBJECT_NAME":"CZ-6A DEB","OBJECT_ID":"2022-151QV","EPOCH":"2026-03-09T04:36:08.895168","MEAN_MOTION":15.24642942,"ECCENTRICITY":0.00273347,"INCLINATION":98.639,"RA_OF_ASC_NODE":154.2763,"ARG_OF_PERICENTER":174.5721,"MEAN_ANOMALY":185.5815,"EPHEMERIS_TYPE":0,"CLASSIFICATION_TYPE":"U","NORAD_CAT_ID":54908,"ELEMENT_SET_NO":999,"REV_AT_EPOCH":17373,"BSTAR":0.0098290719,"MEAN_MOTION_DOT":0.00253193,"MEAN_MOTION_DDOT":0}]
